{
  "type": "FeatureCollection",
  "features": [
    {
      "type": "Feature",
      "properties": {
        "norad_id": 44873,
        "name": "CSG-1",
        "group": "resource",
        "lat": -1.23564335315718,
        "lon": 158.8417531878423,
        "alt_km": 625.5393401248548,
        "timestamp": "2025-12-03T04:52:29.299195+00:00",
        "meta_object_name": "CSG-1",
        "meta_object_id": "2019-092A",
        "meta_epoch": "2025-12-02T19:09:32.484960",
        "meta_mean_motion": 14.82173342,
        "meta_eccentricity": 0.0001378,
        "meta_inclination": 97.8806,
        "meta_ra_of_asc_node": 158.272,
        "meta_arg_of_pericenter": 83.3236,
        "meta_mean_anomaly": 276.8134,
        "meta_ephemeris_type": 0,
        "meta_classification_type": "U",
        "meta_norad_cat_id": 44873,
        "meta_element_set_no": 999,
        "meta_rev_at_epoch": 32238,
        "meta_bstar": 0.00011663,
        "meta_mean_motion_dot": 8.77e-06,
        "meta_mean_motion_ddot": 0,
        "tle_line1": "1 44873U 19092A   25336.79829265  .00000877  00000+0  11663-3 0  9995",
        "tle_line2": "2 44873  97.8806 158.2720 0001378  83.3236 276.8134 14.82173342322389"
      },
      "geometry": {
        "type": "Point",
        "coordinates": [
          158.8417531878423,
          -1.23564335315718
        ]
      }
    },
    {
      "type": "Feature",
      "properties": {
        "norad_id": 46277,
        "name": "NEMO-HD",
        "group": "resource",
        "lat": -30.84368075477166,
        "lon": 40.76829834321156,
        "alt_km": 452.397248010363,
        "timestamp": "2025-12-03T04:52:29.299205+00:00",
        "meta_object_name": "NEMO-HD",
        "meta_object_id": "2020-061F",
        "meta_epoch": "2025-12-02T19:39:10.712736",
        "meta_mean_motion": 15.40009228,
        "meta_eccentricity": 0.0002354,
        "meta_inclination": 97.2235,
        "meta_ra_of_asc_node": 36.0452,
        "meta_arg_of_pericenter": 68.752,
        "meta_mean_anomaly": 291.3977,
        "meta_ephemeris_type": 0,
        "meta_classification_type": "U",
        "meta_norad_cat_id": 46277,
        "meta_element_set_no": 999,
        "meta_rev_at_epoch": 29171,
        "meta_bstar": 0.00033564,
        "meta_mean_motion_dot": 0.00013322,
        "meta_mean_motion_ddot": 0,
        "tle_line1": "1 46277U 20061F   25336.81887399  .00013322  00000+0  33564-3 0  9991",
        "tle_line2": "2 46277  97.2235  36.0452 0002354  68.7520 291.3977 15.40009228291717"
      },
      "geometry": {
        "type": "Point",
        "coordinates": [
          40.76829834321156,
          -30.84368075477166
        ]
      }
    },
    {
      "type": "Feature",
      "properties": {
        "norad_id": 46984,
        "name": "SENTINEL-6A",
        "group": "resource",
        "lat": 41.71191385600091,
        "lon": -154.53398674633954,
        "alt_km": 1337.8263160483139,
        "timestamp": "2025-12-03T04:52:29.299215+00:00",
        "meta_object_name": "SENTINEL-6A",
        "meta_object_id": "2020-086A",
        "meta_epoch": "2025-12-02T19:15:44.885376",
        "meta_mean_motion": 12.80929984,
        "meta_eccentricity": 0.0007733,
        "meta_inclination": 66.0388,
        "meta_ra_of_asc_node": 182.9477,
        "meta_arg_of_pericenter": 269.134,
        "meta_mean_anomaly": 90.8789,
        "meta_ephemeris_type": 0,
        "meta_classification_type": "U",
        "meta_norad_cat_id": 46984,
        "meta_element_set_no": 999,
        "meta_rev_at_epoch": 23517,
        "meta_bstar": 0.00011631,
        "meta_mean_motion_dot": -3.4e-07,
        "meta_mean_motion_ddot": 0,
        "tle_line1": "1 46984U 20086A   25336.80260284 -.00000034  00000+0  11631-3 0  9998",
        "tle_line2": "2 46984  66.0388 182.9477 0007733 269.1340  90.8789 12.80929984235178"
      },
      "geometry": {
        "type": "Point",
        "coordinates": [
          -154.53398674633954,
          41.71191385600091
        ]
      }
    },
    {
      "type": "Feature",
      "properties": {
        "norad_id": 48079,
        "name": "GAOFEN-12 02",
        "group": "resource",
        "lat": -49.31094839932706,
        "lon": -19.34835733956123,
        "alt_km": 636.3770225032649,
        "timestamp": "2025-12-03T04:52:29.299226+00:00",
        "meta_object_name": "GAOFEN-12 02",
        "meta_object_id": "2021-026A",
        "meta_epoch": "2025-12-02T20:59:26.735136",
        "meta_mean_motion": 14.80655604,
        "meta_eccentricity": 0.0003238,
        "meta_inclination": 97.9849,
        "meta_ra_of_asc_node": 330.9289,
        "meta_arg_of_pericenter": 120.9436,
        "meta_mean_anomaly": 239.2094,
        "meta_ephemeris_type": 0,
        "meta_classification_type": "U",
        "meta_norad_cat_id": 48079,
        "meta_element_set_no": 999,
        "meta_rev_at_epoch": 25271,
        "meta_bstar": 0.0001023,
        "meta_mean_motion_dot": 7.33e-06,
        "meta_mean_motion_ddot": 0,
        "tle_line1": "1 48079U 21026A   25336.87461499  .00000733  00000+0  10230-3 0  9997",
        "tle_line2": "2 48079  97.9849 330.9289 0003238 120.9436 239.2094 14.80655604252716"
      },
      "geometry": {
        "type": "Point",
        "coordinates": [
          -19.34835733956123,
          -49.31094839932706
        ]
      }
    },
    {
      "type": "Feature",
      "properties": {
        "norad_id": 48268,
        "name": "PLEIADES NEO 3",
        "group": "resource",
        "lat": -17.303348580058547,
        "lon": 52.25833195034755,
        "alt_km": 629.2731491486902,
        "timestamp": "2025-12-03T04:52:29.299238+00:00",
        "meta_object_name": "PLEIADES NEO 3",
        "meta_object_id": "2021-034A",
        "meta_epoch": "2025-12-02T20:50:58.428384",
        "meta_mean_motion": 14.81667497,
        "meta_eccentricity": 0.0001282,
        "meta_inclination": 97.8945,
        "meta_ra_of_asc_node": 49.4513,
        "meta_arg_of_pericenter": 88.9632,
        "meta_mean_anomaly": 271.1728,
        "meta_ephemeris_type": 0,
        "meta_classification_type": "U",
        "meta_norad_cat_id": 48268,
        "meta_element_set_no": 999,
        "meta_rev_at_epoch": 24858,
        "meta_bstar": -1.1987e-06,
        "meta_mean_motion_dot": -6.1e-07,
        "meta_mean_motion_ddot": 0,
        "tle_line1": "1 48268U 21034A   25336.86873181 -.00000061  00000+0 -11987-5 0  9998",
        "tle_line2": "2 48268  97.8945  49.4513 0001282  88.9632 271.1728 14.81667497248585"
      },
      "geometry": {
        "type": "Point",
        "coordinates": [
          52.25833195034755,
          -17.303348580058547
        ]
      }
    },
    {
      "type": "Feature",
      "properties": {
        "norad_id": 49070,
        "name": "PLEIADES NEO 4",
        "group": "resource",
        "lat": 16.989444810777016,
        "lon": -127.79348201565293,
        "alt_km": 624.272023365409,
        "timestamp": "2025-12-03T04:52:29.299248+00:00",
        "meta_object_name": "PLEIADES NEO 4",
        "meta_object_id": "2021-073E",
        "meta_epoch": "2025-12-02T20:02:20.161248",
        "meta_mean_motion": 14.81671924,
        "meta_eccentricity": 0.0001258,
        "meta_inclination": 97.8949,
        "meta_ra_of_asc_node": 49.4138,
        "meta_arg_of_pericenter": 97.2927,
        "meta_mean_anomaly": 262.8429,
        "meta_ephemeris_type": 0,
        "meta_classification_type": "U",
        "meta_norad_cat_id": 49070,
        "meta_element_set_no": 999,
        "meta_rev_at_epoch": 23229,
        "meta_bstar": 3.7338e-07,
        "meta_mean_motion_dot": -4.9e-07,
        "meta_mean_motion_ddot": 0,
        "tle_line1": "1 49070U 21073E   25336.83495557 -.00000049  00000+0  37338-6 0  9991",
        "tle_line2": "2 49070  97.8949  49.4138 0001258  97.2927 262.8429 14.81671924232293"
      },
      "geometry": {
        "type": "Point",
        "coordinates": [
          -127.79348201565293,
          16.989444810777016
        ]
      }
    },
    {
      "type": "Feature",
      "properties": {
        "norad_id": 49260,
        "name": "LANDSAT 9",
        "group": "resource",
        "lat": -58.05931000206005,
        "lon": 58.84266361617592,
        "alt_km": 710.2676607055828,
        "timestamp": "2025-12-03T04:52:29.299258+00:00",
        "meta_object_name": "LANDSAT 9",
        "meta_object_id": "2021-088A",
        "meta_epoch": "2025-12-02T19:15:24.807744",
        "meta_mean_motion": 14.57113378,
        "meta_eccentricity": 0.0001078,
        "meta_inclination": 98.2104,
        "meta_ra_of_asc_node": 45.0568,
        "meta_arg_of_pericenter": 92.5891,
        "meta_mean_anomaly": 267.5431,
        "meta_ephemeris_type": 0,
        "meta_classification_type": "U",
        "meta_norad_cat_id": 49260,
        "meta_element_set_no": 999,
        "meta_rev_at_epoch": 22240,
        "meta_bstar": 0.00014901,
        "meta_mean_motion_dot": 6.26e-06,
        "meta_mean_motion_ddot": 0,
        "tle_line1": "1 49260U 21088A   25336.80237046  .00000626  00000+0  14901-3 0  9990",
        "tle_line2": "2 49260  98.2104  45.0568 0001078  92.5891 267.5431 14.57113378222403"
      },
      "geometry": {
        "type": "Point",
        "coordinates": [
          58.84266361617592,
          -58.05931000206005
        ]
      }
    }
  ]
}